ARIANE 40+ R/B          
1 23561U 95021B   26107.17019771  .00000169  00000+0  67786-4 0  9996
2 23561  98.4439 178.1192 0007255  36.5025 344.1359 14.39799165624785
SL-16 R/B               
1 23705U 95058B   26107.14669057  .00000206  00000+0  12982-3 0  9990
2 23705  71.0196  99.5147 0010661  54.9705 305.2417 14.15503956573299
SL-16 R/B               
1 24298U 96051B   26107.12602069  .00000034  00000+0  44882-4 0  9994
2 24298  70.7569  93.8832 0012626  82.4796 277.7758 14.12425526527073
ORBVIEW 2 (SEASTAR)     
1 24883U 97037A   26106.89305173  .00000148  00000+0  67788-4 0  9994
2 24883  98.8630 272.2301 0001395 333.2105  26.9007 14.35520942513955
SL-16 R/B               
1 25400U 98043G   26107.11082821  .00000014  00000+0  25096-4 0  9994
2 25400  98.8317  60.7622 0008764 262.7385  97.2799 14.26058412444468
SL-16 R/B               
1 25407U 98045B   26107.13871570 -.00000044  00000+0  20423-5 0  9996
2 25407  71.0093 100.7159 0008999 313.9751  46.0629 14.16199092432544
ISS (ZARYA)             
1 25544U 98067A   26107.16713328  .00006923  00000+0  13461-3 0  9994
2 25544  51.6328 242.0950 0006547 316.4598  43.5873 15.48795320562295
CZ-4B R/B               
1 25732U 99025C   26107.10706065  .00000021  00000+0  30935-4 0  9991
2 25732  98.6553 150.4646 0036229 233.2947 151.2717 14.18272765393614
OKEAN-O                 
1 25860U 99039A   26107.11179909  .00000348  00000+0  52350-4 0  9997
2 25860  97.9369 166.5975 0001271 115.4942 244.6402 14.80393717440072
SL-16 R/B               
1 25861U 99039B   26107.12315406  .00000294  00000+0  44014-4 0  9991
2 25861  97.9891 166.1467 0015904 129.6076 230.6543 14.81782268442558
DELTA 2 R/B             
1 25876U 99041E   26107.16326241  .00000219  00000+0  75620-4 0  9997
2 25876  51.7597 147.5820 0502534 101.8825 263.8893 14.11918772368462
HELIOS 1B               
1 25977U 99064A   26107.18395031  .00000882  00000+0  10289-3 0  9994
2 25977  98.1658  10.5528 0000732  40.6248 319.5021 14.87840511690988
TERRA                   
1 25994U 99068A   26107.27323892  .00000254  00000+0  60858-4 0  9994
2 25994  97.9517 159.2184 0003533  73.8357 350.6813 14.61054158400719
