[
    {
        "OBJECT_NAME": "ARIANE 40+ R/B",
        "OBJECT_ID": "1995-021B",
        "EPOCH": "2026-04-17T04:05:05.082144",
        "MEAN_MOTION": 14.39799165,
        "ECCENTRICITY": 0.00072551,
        "INCLINATION": 98.4439,
        "RA_OF_ASC_NODE": 178.1192,
        "ARG_OF_PERICENTER": 36.5025,
        "MEAN_ANOMALY": 344.1359,
        "EPHEMERIS_TYPE": 0,
        "CLASSIFICATION_TYPE": "U",
        "NORAD_CAT_ID": 23561,
        "ELEMENT_SET_NO": 999,
        "REV_AT_EPOCH": 62478,
        "BSTAR": 6.7785633e-05,
        "MEAN_MOTION_DOT": 1.69e-06,
        "MEAN_MOTION_DDOT": 0
    },
    {
        "OBJECT_NAME": "SL-16 R/B",
        "OBJECT_ID": "1995-058B",
        "EPOCH": "2026-04-17T03:31:14.065248",
        "MEAN_MOTION": 14.15503956,
        "ECCENTRICITY": 0.00106616,
        "INCLINATION": 71.0196,
        "RA_OF_ASC_NODE": 99.5147,
        "ARG_OF_PERICENTER": 54.9705,
        "MEAN_ANOMALY": 305.2417,
        "EPHEMERIS_TYPE": 0,
        "CLASSIFICATION_TYPE": "U",
        "NORAD_CAT_ID": 23705,
        "ELEMENT_SET_NO": 999,
        "REV_AT_EPOCH": 57329,
        "BSTAR": 0.00012981805,
        "MEAN_MOTION_DOT": 2.06e-06,
        "MEAN_MOTION_DDOT": 0
    },
    {
        "OBJECT_NAME": "SL-16 R/B",
        "OBJECT_ID": "1996-051B",
        "EPOCH": "2026-04-17T03:01:28.187616",
        "MEAN_MOTION": 14.12425526,
        "ECCENTRICITY": 0.00126269,
        "INCLINATION": 70.7569,
        "RA_OF_ASC_NODE": 93.8832,
        "ARG_OF_PERICENTER": 82.4796,
        "MEAN_ANOMALY": 277.7758,
        "EPHEMERIS_TYPE": 0,
        "CLASSIFICATION_TYPE": "U",
        "NORAD_CAT_ID": 24298,
        "ELEMENT_SET_NO": 999,
        "REV_AT_EPOCH": 52707,
        "BSTAR": 4.4882321e-05,
        "MEAN_MOTION_DOT": 3.4e-07,
        "MEAN_MOTION_DDOT": 0
    },
    {
        "OBJECT_NAME": "ORBVIEW 2 (SEASTAR)",
        "OBJECT_ID": "1997-037A",
        "EPOCH": "2026-04-16T21:25:59.669472",
        "MEAN_MOTION": 14.35520942,
        "ECCENTRICITY": 0.0001395,
        "INCLINATION": 98.863,
        "RA_OF_ASC_NODE": 272.2301,
        "ARG_OF_PERICENTER": 333.2105,
        "MEAN_ANOMALY": 26.9007,
        "EPHEMERIS_TYPE": 0,
        "CLASSIFICATION_TYPE": "U",
        "NORAD_CAT_ID": 24883,
        "ELEMENT_SET_NO": 999,
        "REV_AT_EPOCH": 51395,
        "BSTAR": 6.7787848e-05,
        "MEAN_MOTION_DOT": 1.48e-06,
        "MEAN_MOTION_DDOT": 0
    },
    {
        "OBJECT_NAME": "SL-16 R/B",
        "OBJECT_ID": "1998-043G",
        "EPOCH": "2026-04-17T02:39:35.557344",
        "MEAN_MOTION": 14.26058412,
        "ECCENTRICITY": 0.00087644,
        "INCLINATION": 98.8317,
        "RA_OF_ASC_NODE": 60.7622,
        "ARG_OF_PERICENTER": 262.7385,
        "MEAN_ANOMALY": 97.2799,
        "EPHEMERIS_TYPE": 0,
        "CLASSIFICATION_TYPE": "U",
        "NORAD_CAT_ID": 25400,
        "ELEMENT_SET_NO": 999,
        "REV_AT_EPOCH": 44446,
        "BSTAR": 2.5096017e-05,
        "MEAN_MOTION_DOT": 1.4e-07,
        "MEAN_MOTION_DDOT": 0
    },
    {
        "OBJECT_NAME": "SL-16 R/B",
        "OBJECT_ID": "1998-045B",
        "EPOCH": "2026-04-17T03:19:45.036480",
        "MEAN_MOTION": 14.16199092,
        "ECCENTRICITY": 0.00089994,
        "INCLINATION": 71.0093,
        "RA_OF_ASC_NODE": 100.7159,
        "ARG_OF_PERICENTER": 313.9751,
        "MEAN_ANOMALY": 46.0629,
        "EPHEMERIS_TYPE": 0,
        "CLASSIFICATION_TYPE": "U",
        "NORAD_CAT_ID": 25407,
        "ELEMENT_SET_NO": 999,
        "REV_AT_EPOCH": 43254,
        "BSTAR": 2.042306e-06,
        "MEAN_MOTION_DOT": -4.4e-07,
        "MEAN_MOTION_DDOT": 0
    },
    {
        "OBJECT_NAME": "ISS (ZARYA)",
        "OBJECT_ID": "1998-067A",
        "EPOCH": "2026-04-17T04:00:40.315392",
        "MEAN_MOTION": 15.4879532,
        "ECCENTRICITY": 0.00065476,
        "INCLINATION": 51.6328,
        "RA_OF_ASC_NODE": 242.095,
        "ARG_OF_PERICENTER": 316.4598,
        "MEAN_ANOMALY": 43.5873,
        "EPHEMERIS_TYPE": 0,
        "CLASSIFICATION_TYPE": "U",
        "NORAD_CAT_ID": 25544,
        "ELEMENT_SET_NO": 999,
        "REV_AT_EPOCH": 56229,
        "BSTAR": 0.00013461451,
        "MEAN_MOTION_DOT": 6.923e-05,
        "MEAN_MOTION_DDOT": 0
    },
    {
        "OBJECT_NAME": "CZ-4B R/B",
        "OBJECT_ID": "1999-025C",
        "EPOCH": "2026-04-17T02:34:10.040160",
        "MEAN_MOTION": 14.18272765,
        "ECCENTRICITY": 0.00362292,
        "INCLINATION": 98.6553,
        "RA_OF_ASC_NODE": 150.4646,
        "ARG_OF_PERICENTER": 233.2947,
        "MEAN_ANOMALY": 151.2717,
        "EPHEMERIS_TYPE": 0,
        "CLASSIFICATION_TYPE": "U",
        "NORAD_CAT_ID": 25732,
        "ELEMENT_SET_NO": 999,
        "REV_AT_EPOCH": 39361,
        "BSTAR": 3.0934882e-05,
        "MEAN_MOTION_DOT": 2.1e-07,
        "MEAN_MOTION_DDOT": 0
    },
    {
        "OBJECT_NAME": "OKEAN-O",
        "OBJECT_ID": "1999-039A",
        "EPOCH": "2026-04-17T02:40:59.441376",
        "MEAN_MOTION": 14.80393717,
        "ECCENTRICITY": 0.00012717,
        "INCLINATION": 97.9369,
        "RA_OF_ASC_NODE": 166.5975,
        "ARG_OF_PERICENTER": 115.4942,
        "MEAN_ANOMALY": 244.6402,
        "EPHEMERIS_TYPE": 0,
        "CLASSIFICATION_TYPE": "U",
        "NORAD_CAT_ID": 25860,
        "ELEMENT_SET_NO": 999,
        "REV_AT_EPOCH": 44007,
        "BSTAR": 5.234993e-05,
        "MEAN_MOTION_DOT": 3.48e-06,
        "MEAN_MOTION_DDOT": 0
    },
    {
        "OBJECT_NAME": "SL-16 R/B",
        "OBJECT_ID": "1999-039B",
        "EPOCH": "2026-04-17T02:57:20.510784",
        "MEAN_MOTION": 14.81782268,
        "ECCENTRICITY": 0.00159043,
        "INCLINATION": 97.9891,
        "RA_OF_ASC_NODE": 166.1467,
        "ARG_OF_PERICENTER": 129.6076,
        "MEAN_ANOMALY": 230.6543,
        "EPHEMERIS_TYPE": 0,
        "CLASSIFICATION_TYPE": "U",
        "NORAD_CAT_ID": 25861,
        "ELEMENT_SET_NO": 999,
        "REV_AT_EPOCH": 44255,
        "BSTAR": 4.4013581e-05,
        "MEAN_MOTION_DOT": 2.94e-06,
        "MEAN_MOTION_DDOT": 0
    },
    {
        "OBJECT_NAME": "DELTA 2 R/B",
        "OBJECT_ID": "1999-041E",
        "EPOCH": "2026-04-17T03:55:05.872224",
        "MEAN_MOTION": 14.11918772,
        "ECCENTRICITY": 0.05025342,
        "INCLINATION": 51.7597,
        "RA_OF_ASC_NODE": 147.582,
        "ARG_OF_PERICENTER": 101.8825,
        "MEAN_ANOMALY": 263.8893,
        "EPHEMERIS_TYPE": 0,
        "CLASSIFICATION_TYPE": "U",
        "NORAD_CAT_ID": 25876,
        "ELEMENT_SET_NO": 999,
        "REV_AT_EPOCH": 36846,
        "BSTAR": 7.5619531e-05,
        "MEAN_MOTION_DOT": 2.19e-06,
        "MEAN_MOTION_DDOT": 0
    },
    {
        "OBJECT_NAME": "HELIOS 1B",
        "OBJECT_ID": "1999-064A",
        "EPOCH": "2026-04-17T04:24:53.306784",
        "MEAN_MOTION": 14.87840511,
        "ECCENTRICITY": 7.326e-05,
        "INCLINATION": 98.1658,
        "RA_OF_ASC_NODE": 10.5528,
        "ARG_OF_PERICENTER": 40.6248,
        "MEAN_ANOMALY": 319.5021,
        "EPHEMERIS_TYPE": 0,
        "CLASSIFICATION_TYPE": "U",
        "NORAD_CAT_ID": 25977,
        "ELEMENT_SET_NO": 999,
        "REV_AT_EPOCH": 69098,
        "BSTAR": 0.00010289275,
        "MEAN_MOTION_DOT": 8.82e-06,
        "MEAN_MOTION_DDOT": 0
    },
    {
        "OBJECT_NAME": "TERRA",
        "OBJECT_ID": "1999-068A",
        "EPOCH": "2026-04-17T06:33:27.842688",
        "MEAN_MOTION": 14.61054158,
        "ECCENTRICITY": 0.0003533,
        "INCLINATION": 97.9517,
        "RA_OF_ASC_NODE": 159.2184,
        "ARG_OF_PERICENTER": 73.8357,
        "MEAN_ANOMALY": 350.6813,
        "EPHEMERIS_TYPE": 0,
        "CLASSIFICATION_TYPE": "U",
        "NORAD_CAT_ID": 25994,
        "ELEMENT_SET_NO": 999,
        "REV_AT_EPOCH": 40071,
        "BSTAR": 6.0858438e-05,
        "MEAN_MOTION_DOT": 2.54e-06,
        "MEAN_MOTION_DDOT": 0
    }
]